KUIPER-00071            
1 64818U 25151C   25274.75828301  .00005034  00000+0  68853-3 0  9999
2 64818  51.8991 285.8660 0008234  65.7175 294.4647 14.79945124 11739
KUIPER-00072            
1 64819U 25151D   25275.00002315 -.00650474  00000+0 -23816-1 0  9992
2 64819  51.8794 272.7358 0006969  67.8651 115.6688 15.29859436  5834
KUIPER-00073            
1 64820U 25151E   25274.99468974 -.00000383  00000+0 -20672-4 0  9996
2 64820  51.8977 284.8222 0013008  89.1972 271.0481 14.79936036 12953
KUIPER-00074            
1 64821U 25151F   25275.00002315 -.01607102  00000+0 -10831+0 0  9997
2 64821  51.8877 274.7701 0013949  94.4109 105.2841 15.09709568  4869
KUIPER-00075            
1 64822U 25151G   25274.97984171  .00088914  00000+0  22937-2 0  9996
2 64822  51.8764 272.2481 0009268  60.5127 299.6784 15.38374220 11942
KUIPER-00076            
1 64823U 25151H   25275.00002315  .00038856  00000+0  28401-2 0  9995
2 64823  51.8875 276.1874 0006172  87.5930 226.7785 15.03247506  5670
KUIPER-00077            
1 64824U 25151J   25275.00002315 -.00964284  00000+0 -11434+0 0  9996
2 64824  51.9265 279.9190 0006261  45.0660 244.3857 14.87083770  5640
KUIPER-00078            
1 64825U 25151K   25275.00002315 -.01284013  00000+0 -12337+0 0  9996
2 64825  51.8920 277.8930 0008086 109.4152  91.5868 14.95772235  5852
